[{"OBJECT_NAME":"AMC-3","OBJECT_ID":"1997-050A","EPOCH":"2026-03-03T23:54:38.515968","MEAN_MOTION":1.00271818,"ECCENTRICITY":0.00034833,"INCLINATION":7.8887,"RA_OF_ASC_NODE":65.2783,"ARG_OF_PERICENTER":287.8217,"MEAN_ANOMALY":95.3034,"EPHEMERIS_TYPE":0,"CLASSIFICATION_TYPE":"U","NORAD_CAT_ID":24936,"ELEMENT_SET_NO":999,"REV_AT_EPOCH":5138,"BSTAR":0,"MEAN_MOTION_DOT":-2.71e-6,"MEAN_MOTION_DDOT":0},{"OBJECT_NAME":"NSS-11","OBJECT_ID":"2000-059A","EPOCH":"2026-03-05T16:19:38.594784","MEAN_MOTION":1.00272508,"ECCENTRICITY":0.0003171,"INCLINATION":1.8592,"RA_OF_ASC_NODE":82.6563,"ARG_OF_PERICENTER":269.4661,"MEAN_ANOMALY":232.1912,"EPHEMERIS_TYPE":0,"CLASSIFICATION_TYPE":"U","NORAD_CAT_ID":26554,"ELEMENT_SET_NO":999,"REV_AT_EPOCH":4025,"BSTAR":0,"MEAN_MOTION_DOT":1.8e-7,"MEAN_MOTION_DDOT":0},{"OBJECT_NAME":"AMC-6","OBJECT_ID":"2000-067A","EPOCH":"2026-03-05T15:03:58.023360","MEAN_MOTION":1.00272696,"ECCENTRICITY":0.0003092,"INCLINATION":0.0314,"RA_OF_ASC_NODE":322.9282,"ARG_OF_PERICENTER":27.1013,"MEAN_ANOMALY":264.2486,"EPHEMERIS_TYPE":0,"CLASSIFICATION_TYPE":"U","NORAD_CAT_ID":26580,"ELEMENT_SET_NO":999,"REV_AT_EPOCH":9285,"BSTAR":0,"MEAN_MOTION_DOT":8.1e-7,"MEAN_MOTION_DDOT":0},{"OBJECT_NAME":"AMC-11","OBJECT_ID":"2004-017A","EPOCH":"2026-03-05T15:10:49.865376","MEAN_MOTION":1.00272623,"ECCENTRICITY":0.0003227,"INCLINATION":0.0445,"RA_OF_ASC_NODE":79.2927,"ARG_OF_PERICENTER":272.5152,"MEAN_ANOMALY":288.1558,"EPHEMERIS_TYPE":0,"CLASSIFICATION_TYPE":"U","NORAD_CAT_ID":28252,"ELEMENT_SET_NO":999,"REV_AT_EPOCH":7982,"BSTAR":0,"MEAN_MOTION_DOT":-5.7e-7,"MEAN_MOTION_DDOT":0},{"OBJECT_NAME":"AMC-15","OBJECT_ID":"2004-041A","EPOCH":"2026-03-05T15:12:34.697952","MEAN_MOTION":1.00272311,"ECCENTRICITY":0.0002607,"INCLINATION":0.0525,"RA_OF_ASC_NODE":299.4291,"ARG_OF_PERICENTER":28.1078,"MEAN_ANOMALY":318.9071,"EPHEMERIS_TYPE":0,"CLASSIFICATION_TYPE":"U","NORAD_CAT_ID":28446,"ELEMENT_SET_NO":999,"REV_AT_EPOCH":7826,"BSTAR":0,"MEAN_MOTION_DOT":-9.6e-7,"MEAN_MOTION_DDOT":0},{"OBJECT_NAME":"NSS-10","OBJECT_ID":"2005-003A","EPOCH":"2026-03-04T10:52:38.525952","MEAN_MOTION":1.00271252,"ECCENTRICITY":0.0003261,"INCLINATION":6.1878,"RA_OF_ASC_NODE":71.7201,"ARG_OF_PERICENTER":277.1631,"MEAN_ANOMALY":299.0193,"EPHEMERIS_TYPE":0,"CLASSIFICATION_TYPE":"U","NORAD_CAT_ID":28526,"ELEMENT_SET_NO":999,"REV_AT_EPOCH":5210,"BSTAR":0,"MEAN_MOTION_DOT":-2.6e-6,"MEAN_MOTION_DDOT":0},{"OBJECT_NAME":"ASTRA 1KR","OBJECT_ID":"2006-012A","EPOCH":"2026-03-05T19:24:01.662048","MEAN_MOTION":1.00270094,"ECCENTRICITY":0.0003417,"INCLINATION":0.2074,"RA_OF_ASC_NODE":81.8693,"ARG_OF_PERICENTER":251.7714,"MEAN_ANOMALY":139.8843,"EPHEMERIS_TYPE":0,"CLASSIFICATION_TYPE":"U","NORAD_CAT_ID":29055,"ELEMENT_SET_NO":999,"REV_AT_EPOCH":4466,"BSTAR":0,"MEAN_MOTION_DOT":1.12e-6,"MEAN_MOTION_DDOT":0},{"OBJECT_NAME":"ASTRA 1L","OBJECT_ID":"2007-016A","EPOCH":"2026-03-05T10:27:32.028768","MEAN_MOTION":1.00271186,"ECCENTRICITY":0.0003358,"INCLINATION":1.0535,"RA_OF_ASC_NODE":82.4151,"ARG_OF_PERICENTER":277.9455,"MEAN_ANOMALY":295.2321,"EPHEMERIS_TYPE":0,"CLASSIFICATION_TYPE":"U","NORAD_CAT_ID":31306,"ELEMENT_SET_NO":999,"REV_AT_EPOCH":4394,"BSTAR":0,"MEAN_MOTION_DOT":-1.92e-6,"MEAN_MOTION_DDOT":0},{"OBJECT_NAME":"ASTRA 4A","OBJECT_ID":"2007-057A","EPOCH":"2026-03-05T15:43:54.194304","MEAN_MOTION":1.00271236,"ECCENTRICITY":0.0002399,"INCLINATION":0.0507,"RA_OF_ASC_NODE":294.771,"ARG_OF_PERICENTER":50.2802,"MEAN_ANOMALY":59.1109,"EPHEMERIS_TYPE":0,"CLASSIFICATION_TYPE":"U","NORAD_CAT_ID":32299,"ELEMENT_SET_NO":999,"REV_AT_EPOCH":5060,"BSTAR":0,"MEAN_MOTION_DOT":2.5e-7,"MEAN_MOTION_DDOT":0},{"OBJECT_NAME":"ASTRA 1M","OBJECT_ID":"2008-057A","EPOCH":"2026-03-05T14:05:18.648096","MEAN_MOTION":1.00274593,"ECCENTRICITY":9.82e-5,"INCLINATION":0.0373,"RA_OF_ASC_NODE":62.2117,"ARG_OF_PERICENTER":11.9452,"MEAN_ANOMALY":319.6882,"EPHEMERIS_TYPE":0,"CLASSIFICATION_TYPE":"U","NORAD_CAT_ID":33436,"ELEMENT_SET_NO":999,"REV_AT_EPOCH":4469,"BSTAR":0,"MEAN_MOTION_DOT":1.13e-6,"MEAN_MOTION_DDOT":0},{"OBJECT_NAME":"NSS-9","OBJECT_ID":"2009-008A","EPOCH":"2026-03-05T18:03:38.712096","MEAN_MOTION":1.00273644,"ECCENTRICITY":0.0002137,"INCLINATION":0.9942,"RA_OF_ASC_NODE":83.6902,"ARG_OF_PERICENTER":257.9891,"MEAN_ANOMALY":275.779,"EPHEMERIS_TYPE":0,"CLASSIFICATION_TYPE":"U","NORAD_CAT_ID":33749,"ELEMENT_SET_NO":999,"REV_AT_EPOCH":6248,"BSTAR":0,"MEAN_MOTION_DOT":6.5e-7,"MEAN_MOTION_DDOT":0},{"OBJECT_NAME":"SES-7 (PROTOSTAR 2)","OBJECT_ID":"2009-027A","EPOCH":"2026-03-05T17:27:38.839104","MEAN_MOTION":1.00271071,"ECCENTRICITY":0.0001451,"INCLINATION":0.0175,"RA_OF_ASC_NODE":98.2179,"ARG_OF_PERICENTER":210.0984,"MEAN_ANOMALY":225.3007,"EPHEMERIS_TYPE":0,"CLASSIFICATION_TYPE":"U","NORAD_CAT_ID":34941,"ELEMENT_SET_NO":999,"REV_AT_EPOCH":6159,"BSTAR":0,"MEAN_MOTION_DOT":-3.52e-6,"MEAN_MOTION_DDOT":0},{"OBJECT_NAME":"NSS-12","OBJECT_ID":"2009-058A","EPOCH":"2026-03-05T15:58:45.271200","MEAN_MOTION":1.00273074,"ECCENTRICITY":0.0004926,"INCLINATION":0.0358,"RA_OF_ASC_NODE":307.329,"ARG_OF_PERICENTER":23.5382,"MEAN_ANOMALY":129.2055,"EPHEMERIS_TYPE":0,"CLASSIFICATION_TYPE":"U","NORAD_CAT_ID":36032,"ELEMENT_SET_NO":999,"REV_AT_EPOCH":5988,"BSTAR":0,"MEAN_MOTION_DOT":6.4e-7,"MEAN_MOTION_DDOT":0},{"OBJECT_NAME":"SES-1","OBJECT_ID":"2010-016A","EPOCH":"2026-03-05T15:13:42.089952","MEAN_MOTION":1.0027253,"ECCENTRICITY":0.0002503,"INCLINATION":0.0504,"RA_OF_ASC_NODE":295.4082,"ARG_OF_PERICENTER":42.2482,"MEAN_ANOMALY":313.1295,"EPHEMERIS_TYPE":0,"CLASSIFICATION_TYPE":"U","NORAD_CAT_ID":36516,"ELEMENT_SET_NO":999,"REV_AT_EPOCH":5799,"BSTAR":0,"MEAN_MOTION_DOT":-1.22e-6,"MEAN_MOTION_DDOT":0},{"OBJECT_NAME":"ASTRA 3B","OBJECT_ID":"2010-021A","EPOCH":"2026-03-05T17:56:08.272608","MEAN_MOTION":1.00272336,"ECCENTRICITY":0.0003108,"INCLINATION":1.2008,"RA_OF_ASC_NODE":84.9071,"ARG_OF_PERICENTER":281.0445,"MEAN_ANOMALY":90.0486,"EPHEMERIS_TYPE":0,"CLASSIFICATION_TYPE":"U","NORAD_CAT_ID":36581,"ELEMENT_SET_NO":999,"REV_AT_EPOCH":5783,"BSTAR":0,"MEAN_MOTION_DOT":1.31e-6,"MEAN_MOTION_DDOT":0},{"OBJECT_NAME":"SES-3","OBJECT_ID":"2011-035A","EPOCH":"2026-03-05T15:13:04.651104","MEAN_MOTION":1.00272278,"ECCENTRICITY":0.0003576,"INCLINATION":1.059,"RA_OF_ASC_NODE":84.2907,"ARG_OF_PERICENTER":267.8525,"MEAN_ANOMALY":296.4797,"EPHEMERIS_TYPE":0,"CLASSIFICATION_TYPE":"U","NORAD_CAT_ID":37748,"ELEMENT_SET_NO":999,"REV_AT_EPOCH":5355,"BSTAR":0,"MEAN_MOTION_DOT":-1.08e-6,"MEAN_MOTION_DDOT":0},{"OBJECT_NAME":"ASTRA 1N","OBJECT_ID":"2011-041A","EPOCH":"2026-03-05T14:05:18.648096","MEAN_MOTION":1.00274542,"ECCENTRICITY":0.0004155,"INCLINATION":0.0703,"RA_OF_ASC_NODE":22.8506,"ARG_OF_PERICENTER":356.9516,"MEAN_ANOMALY":14.0459,"EPHEMERIS_TYPE":0,"CLASSIFICATION_TYPE":"U","NORAD_CAT_ID":37775,"ELEMENT_SET_NO":999,"REV_AT_EPOCH":4348,"BSTAR":0,"MEAN_MOTION_DOT":1.13e-6,"MEAN_MOTION_DDOT":0}]
