AMC-3                   
1 24936U 97050A   26062.99627912 -.00000271  00000+0  00000+0 0  9995
2 24936   7.8887  65.2783 0003483 287.8217  95.3034  1.00271818 51387
NSS-11                  
1 26554U 00059A   26064.68030781  .00000018  00000+0  00000+0 0  9994
2 26554   1.8592  82.6563 0003171 269.4661 232.1912  1.00272508 40251
AMC-6                   
1 26580U 00067A   26064.62775490  .00000081  00000+0  00000+0 0  9999
2 26580   0.0314 322.9282 0003092  27.1013 264.2486  1.00272696 92856
AMC-11                  
1 28252U 04017A   26064.63252159 -.00000057  00000+0  00000+0 0  9993
2 28252   0.0445  79.2927 0003227 272.5152 288.1558  1.00272623 79824
AMC-15                  
1 28446U 04041A   26064.63373493 -.00000096  00000+0  00000+0 0  9993
2 28446   0.0525 299.4291 0002607  28.1078 318.9071  1.00272311 78264
NSS-10                  
1 28526U 05003A   26063.45322368 -.00000260  00000+0  00000+0 0  9998
2 28526   6.1878  71.7201 0003261 277.1631 299.0193  1.00271252 52103
ASTRA 1KR               
1 29055U 06012A   26064.80835257  .00000112  00000+0  00000+0 0  9998
2 29055   0.2074  81.8693 0003417 251.7714 139.8843  1.00270094 44662
ASTRA 1L                
1 31306U 07016A   26064.43578737 -.00000192  00000+0  00000+0 0  9990
2 31306   1.0535  82.4151 0003358 277.9455 295.2321  1.00271186 43948
ASTRA 4A                
1 32299U 07057A   26064.65548836  .00000025  00000+0  00000+0 0  9992
2 32299   0.0507 294.7710 0002399  50.2802  59.1109  1.00271236 50607
ASTRA 1M                
1 33436U 08057A   26064.58702139  .00000113  00000+0  00000+0 0  9995
2 33436   0.0373  62.2117 0000982  11.9452 319.6882  1.00274593 44695
NSS-9                   
1 33749U 09008A   26064.75253139  .00000065  00000+0  00000+0 0  9995
2 33749   0.9942  83.6902 0002137 257.9891 275.7790  1.00273644 62488
SES-7 (PROTOSTAR 2)     
1 34941U 09027A   26064.72753286 -.00000352  00000+0  00000+0 0  9996
2 34941   0.0175  98.2179 0001451 210.0984 225.3007  1.00271071 61596
NSS-12                  
1 36032U 09058A   26064.66580175  .00000064  00000+0  00000+0 0  9990
2 36032   0.0358 307.3290 0004926  23.5382 129.2055  1.00273074 59888
SES-1                   
1 36516U 10016A   26064.63451493 -.00000122  00000+0  00000+0 0  9996
2 36516   0.0504 295.4082 0002503  42.2482 313.1295  1.00272530 57998
ASTRA 3B                
1 36581U 10021A   26064.74731797  .00000131  00000+0  00000+0 0  9993
2 36581   1.2008  84.9071 0003108 281.0445  90.0486  1.00272336 57835
SES-3                   
1 37748U 11035A   26064.63408161 -.00000108  00000+0  00000+0 0  9994
2 37748   1.0590  84.2907 0003576 267.8525 296.4797  1.00272278 53553
ASTRA 1N                
1 37775U 11041A   26064.58702139  .00000113  00000+0  00000+0 0  9992
2 37775   0.0703  22.8506 0004155 356.9516  14.0459  1.00274542 43481
